{
  "type": "FeatureCollection",
  "features": [
    {
      "type": "Feature",
      "properties": {
        "norad_id": 58701,
        "name": "TIANMU-1 16",
        "group": "weather",
        "lat": 81.85854789700954,
        "lon": 92.92704093359548,
        "alt_km": 487.15274895363655,
        "timestamp": "2025-12-04T07:39:35.817539+00:00",
        "meta_object_name": "TIANMU-1 16",
        "meta_object_id": "2024-004B",
        "meta_epoch": "2025-12-02T23:46:09.262272",
        "meta_mean_motion": 15.24215807,
        "meta_eccentricity": 0.00050547,
        "meta_inclination": 97.4572,
        "meta_ra_of_asc_node": 157.8955,
        "meta_arg_of_pericenter": 336.3217,
        "meta_mean_anomaly": 23.7787,
        "meta_ephemeris_type": 0,
        "meta_classification_type": "U",
        "meta_norad_cat_id": 58701,
        "meta_element_set_no": 999,
        "meta_rev_at_epoch": 10586,
        "meta_bstar": 6.5908855e-05,
        "meta_mean_motion_dot": 1.535e-05,
        "meta_mean_motion_ddot": 0,
        "tle_line1": "1 58701U 24004B   25336.99038498  .00001535  00000+0  65909-4 0  9996",
        "tle_line2": "2 58701  97.4572 157.8955 0005054 336.3217  23.7787 15.24215807105865"
      },
      "geometry": {
        "type": "Point",
        "coordinates": [
          92.92704093359548,
          81.85854789700954
        ]
      }
    },
    {
      "type": "Feature",
      "properties": {
        "norad_id": 58702,
        "name": "TIANMU-1 17",
        "group": "weather",
        "lat": 9.880351061940335,
        "lon": -19.069111174047503,
        "alt_km": 497.44785827884334,
        "timestamp": "2025-12-04T07:39:35.817550+00:00",
        "meta_object_name": "TIANMU-1 17",
        "meta_object_id": "2024-004C",
        "meta_epoch": "2025-12-03T23:02:21.145344",
        "meta_mean_motion": 15.24291475,
        "meta_eccentricity": 0.00042668,
        "meta_inclination": 97.4597,
        "meta_ra_of_asc_node": 159.2657,
        "meta_arg_of_pericenter": 337.0975,
        "meta_mean_anomaly": 23.0072,
        "meta_ephemeris_type": 0,
        "meta_classification_type": "U",
        "meta_norad_cat_id": 58702,
        "meta_element_set_no": 999,
        "meta_rev_at_epoch": 10600,
        "meta_bstar": 0.00051441386,
        "meta_mean_motion_dot": 0.00012509,
        "meta_mean_motion_ddot": 0,
        "tle_line1": "1 58702U 24004C   25337.95996696  .00012509  00000+0  51441-3 0  9995",
        "tle_line2": "2 58702  97.4597 159.2657 0004266 337.0975  23.0072 15.24291475106003"
      },
      "geometry": {
        "type": "Point",
        "coordinates": [
          -19.069111174047503,
          9.880351061940335
        ]
      }
    },
    {
      "type": "Feature",
      "properties": {
        "norad_id": 58703,
        "name": "TIANMU-1 18",
        "group": "weather",
        "lat": -78.88303646142727,
        "lon": -62.01676173256473,
        "alt_km": 499.6213546711879,
        "timestamp": "2025-12-04T07:39:35.817559+00:00",
        "meta_object_name": "TIANMU-1 18",
        "meta_object_id": "2024-004D",
        "meta_epoch": "2025-12-04T00:12:46.025856",
        "meta_mean_motion": 15.24284021,
        "meta_eccentricity": 0.00036352,
        "meta_inclination": 97.4614,
        "meta_ra_of_asc_node": 159.5078,
        "meta_arg_of_pericenter": 337.7902,
        "meta_mean_anomaly": 22.3177,
        "meta_ephemeris_type": 0,
        "meta_classification_type": "U",
        "meta_norad_cat_id": 58703,
        "meta_element_set_no": 999,
        "meta_rev_at_epoch": 10601,
        "meta_bstar": 0.00051361528,
        "meta_mean_motion_dot": 0.00012486,
        "meta_mean_motion_ddot": 0,
        "tle_line1": "1 58703U 24004D   25338.00886604  .00012486  00000+0  51362-3 0  9996",
        "tle_line2": "2 58703  97.4614 159.5078 0003635 337.7902  22.3177 15.24284021106018"
      },
      "geometry": {
        "type": "Point",
        "coordinates": [
          -62.01676173256473,
          -78.88303646142727
        ]
      }
    },
    {
      "type": "Feature",
      "properties": {
        "norad_id": 58990,
        "name": "INSAT-3DS",
        "group": "weather",
        "lat": -0.03140920494461149,
        "lon": -89.64644938239996,
        "alt_km": 35779.5483110855,
        "timestamp": "2025-12-04T07:39:35.817569+00:00",
        "meta_object_name": "INSAT-3DS",
        "meta_object_id": "2024-033A",
        "meta_epoch": "2025-12-03T20:14:15.823680",
        "meta_mean_motion": 1.00268816,
        "meta_eccentricity": 0.00017747,
        "meta_inclination": 0.013,
        "meta_ra_of_asc_node": 325.7109,
        "meta_arg_of_pericenter": 294.1974,
        "meta_mean_anomaly": 198.6664,
        "meta_ephemeris_type": 0,
        "meta_classification_type": "U",
        "meta_norad_cat_id": 58990,
        "meta_element_set_no": 999,
        "meta_rev_at_epoch": 4511,
        "meta_bstar": 0,
        "meta_mean_motion_dot": 0,
        "meta_mean_motion_ddot": 0,
        "tle_line1": "1 58990U 24033A   25337.84323870  .00000000  00000+0  00000+0 0  9996",
        "tle_line2": "2 58990   0.0130 325.7109 0001774 294.1974 198.6664  1.00268816 45112"
      },
      "geometry": {
        "type": "Point",
        "coordinates": [
          -89.64644938239996,
          -0.03140920494461149
        ]
      }
    },
    {
      "type": "Feature",
      "properties": {
        "norad_id": 59051,
        "name": "METEOR-M2 4",
        "group": "weather",
        "lat": -74.73913339177784,
        "lon": -30.611531663657896,
        "alt_km": 825.4097746685393,
        "timestamp": "2025-12-04T07:39:35.817579+00:00",
        "meta_object_name": "METEOR-M2 4",
        "meta_object_id": "2024-039A",
        "meta_epoch": "2025-12-03T23:34:54.758208",
        "meta_mean_motion": 14.22399136,
        "meta_eccentricity": 0.00075064,
        "meta_inclination": 98.6753,
        "meta_ra_of_asc_node": 295.0293,
        "meta_arg_of_pericenter": 22.846,
        "meta_mean_anomaly": 337.305,
        "meta_ephemeris_type": 0,
        "meta_classification_type": "U",
        "meta_norad_cat_id": 59051,
        "meta_element_set_no": 999,
        "meta_rev_at_epoch": 9151,
        "meta_bstar": 5.7122378e-05,
        "meta_mean_motion_dot": 8.4e-07,
        "meta_mean_motion_ddot": 0,
        "tle_line1": "1 59051U 24039A   25337.98257822  .00000084  00000+0  57122-4 0  9993",
        "tle_line2": "2 59051  98.6753 295.0293 0007506  22.8460 337.3050 14.22399136 91517"
      },
      "geometry": {
        "type": "Point",
        "coordinates": [
          -30.611531663657896,
          -74.73913339177784
        ]
      }
    },
    {
      "type": "Feature",
      "properties": {
        "norad_id": 60133,
        "name": "GOES 19",
        "group": "weather",
        "lat": 0.010592004006385698,
        "lon": 113.09266772036449,
        "alt_km": 35792.03142420736,
        "timestamp": "2025-12-04T07:39:35.817589+00:00",
        "meta_object_name": "GOES 19",
        "meta_object_id": "2024-119A",
        "meta_epoch": "2025-12-03T13:23:52.774944",
        "meta_mean_motion": 1.00270855,
        "meta_eccentricity": 0.00013381,
        "meta_inclination": 0.0059,
        "meta_ra_of_asc_node": 37.8356,
        "meta_arg_of_pericenter": 260.173,
        "meta_mean_anomaly": 260.4283,
        "meta_ephemeris_type": 0,
        "meta_classification_type": "U",
        "meta_norad_cat_id": 60133,
        "meta_element_set_no": 999,
        "meta_rev_at_epoch": 500,
        "meta_bstar": 0,
        "meta_mean_motion_dot": -2.3e-06,
        "meta_mean_motion_ddot": 0,
        "tle_line1": "1 60133U 24119A   25337.55824971 -.00000230  00000+0  00000+0 0  9995",
        "tle_line2": "2 60133   0.0059  37.8356 0001338 260.1730 260.4283  1.00270855  5003"
      },
      "geometry": {
        "type": "Point",
        "coordinates": [
          113.09266772036449,
          0.010592004006385698
        ]
      }
    },
    {
      "type": "Feature",
      "properties": {
        "norad_id": 65815,
        "name": "FENGYUN 3H",
        "group": "weather",
        "lat": -56.30109812685674,
        "lon": 84.88699023814108,
        "alt_km": 833.159032236862,
        "timestamp": "2025-12-04T07:39:35.817599+00:00",
        "meta_object_name": "FENGYUN 3H",
        "meta_object_id": "2025-219A",
        "meta_epoch": "2025-12-03T18:42:27.189504",
        "meta_mean_motion": 14.19900487,
        "meta_eccentricity": 6.277e-05,
        "meta_inclination": 98.657,
        "meta_ra_of_asc_node": 277.565,
        "meta_arg_of_pericenter": 71.8149,
        "meta_mean_anomaly": 288.3095,
        "meta_ephemeris_type": 0,
        "meta_classification_type": "U",
        "meta_norad_cat_id": 65815,
        "meta_element_set_no": 999,
        "meta_rev_at_epoch": 965,
        "meta_bstar": 9.1708595e-05,
        "meta_mean_motion_dot": 1.51e-06,
        "meta_mean_motion_ddot": 0,
        "tle_line1": "1 65815U 25219A   25337.77948136  .00000151  00000+0  91709-4 0  9995",
        "tle_line2": "2 65815  98.6570 277.5650 0000627  71.8149 288.3095 14.19900487  9657"
      },
      "geometry": {
        "type": "Point",
        "coordinates": [
          84.88699023814108,
          -56.30109812685674
        ]
      }
    }
  ]
}